{"fetched_at":"2026-04-04T02:03:33Z","count":15623,"tles":[{"name":"STARLINK-37198","line1":"1 68386U 26063G   26092.75002315 -.01753101  91586-3 -37378-2 0  9992","line2":"2 68386  97.2825 233.5446 0001542  70.5188  85.6578 15.98780711  2327","category":"Starlink"}]}